FENGYUN 1C DEB          
1 31055U 99025BEZ 17346.32890227 -.00000000  00000-0  26819-4 0  9994
2 31055  99.0833   5.6747 0025558 196.2967 220.6202 14.07583301550132
